CCSDS_OMM_VERS = 2.0
CREATION_DATE  = 
ORIGINATOR     = 

OBJECT_NAME    = HULIANWANG DIGUI 14J
OBJECT_ID      = 2025-285J
CENTER_NAME    = EARTH
REF_FRAME      = TEME
TIME_SYSTEM    = UTC
MEAN_ELEMENT_THEORY = SGP/SGP4

EPOCH          = 2025-12-10T15:18:44.344800
MEAN_MOTION    = 14.06055236
ECCENTRICITY   = .00053881
INCLINATION    = 50.0076
RA_OF_ASC_NODE = 125.8351
ARG_OF_PERICENTER = 289.1569
MEAN_ANOMALY   = 70.8753

EPHEMERIS_TYPE = 0
CLASSIFICATION_TYPE = U
NORAD_CAT_ID   = 66923
ELEMENT_SET_NO = 999
REV_AT_EPOCH   = 61
BSTAR          = .20757938E-3
MEAN_MOTION_DOT = .19E-5
MEAN_MOTION_DDOT = 0

CCSDS_OMM_VERS = 2.0
CREATION_DATE  = 
ORIGINATOR     = 

OBJECT_NAME    = CZ-8A R/B
OBJECT_ID      = 2025-285K
CENTER_NAME    = EARTH
REF_FRAME      = TEME
TIME_SYSTEM    = UTC
MEAN_ELEMENT_THEORY = SGP/SGP4

EPOCH          = 2025-12-10T15:14:58.228224
MEAN_MOTION    = 14.30500545
ECCENTRICITY   = .01193137
INCLINATION    = 50.0060
RA_OF_ASC_NODE = 125.1122
ARG_OF_PERICENTER = 99.3237
MEAN_ANOMALY   = 262.1193

EPHEMERIS_TYPE = 0
CLASSIFICATION_TYPE = U
NORAD_CAT_ID   = 66924
ELEMENT_SET_NO = 999
REV_AT_EPOCH   = 62
BSTAR          = .98432288E-4
MEAN_MOTION_DOT = .112E-5
MEAN_MOTION_DDOT = 0

CCSDS_OMM_VERS = 2.0
CREATION_DATE  = 
ORIGINATOR     = 

OBJECT_NAME    = HULIANWANG DIGUI 15A
OBJECT_ID      = 2025-287A
CENTER_NAME    = EARTH
REF_FRAME      = TEME
TIME_SYSTEM    = UTC
MEAN_ELEMENT_THEORY = SGP/SGP4

EPOCH          = 2025-12-10T06:55:20.076384
MEAN_MOTION    = 13.69073793
ECCENTRICITY   = .00082441
INCLINATION    = 86.4956
RA_OF_ASC_NODE = 347.0512
ARG_OF_PERICENTER = 213.3003
MEAN_ANOMALY   = 146.7638

EPHEMERIS_TYPE = 0
CLASSIFICATION_TYPE = U
NORAD_CAT_ID   = 66953
ELEMENT_SET_NO = 999
REV_AT_EPOCH   = 19
BSTAR          = .9649594E-5
MEAN_MOTION_DOT = .25E-6
MEAN_MOTION_DDOT = 0

CCSDS_OMM_VERS = 2.0
CREATION_DATE  = 
ORIGINATOR     = 

OBJECT_NAME    = HULIANWANG DIGUI 15B
OBJECT_ID      = 2025-287B
CENTER_NAME    = EARTH
REF_FRAME      = TEME
TIME_SYSTEM    = UTC
MEAN_ELEMENT_THEORY = SGP/SGP4

EPOCH          = 2025-12-10T10:25:40.434528
MEAN_MOTION    = 13.69168852
ECCENTRICITY   = .00081957
INCLINATION    = 86.4972
RA_OF_ASC_NODE = 346.9997
ARG_OF_PERICENTER = 212.0231
MEAN_ANOMALY   = 148.0431

EPHEMERIS_TYPE = 0
CLASSIFICATION_TYPE = U
NORAD_CAT_ID   = 66954
ELEMENT_SET_NO = 999
REV_AT_EPOCH   = 21
BSTAR          = .11007839E-4
MEAN_MOTION_DOT = .26E-6
MEAN_MOTION_DDOT = 0

CCSDS_OMM_VERS = 2.0
CREATION_DATE  = 
ORIGINATOR     = 

OBJECT_NAME    = HULIANWANG DIGUI 15C
OBJECT_ID      = 2025-287C
CENTER_NAME    = EARTH
REF_FRAME      = TEME
TIME_SYSTEM    = UTC
MEAN_ELEMENT_THEORY = SGP/SGP4

EPOCH          = 2025-12-09T09:52:18.926688
MEAN_MOTION    = 13.69296672
ECCENTRICITY   = .00076324
INCLINATION    = 86.4914
RA_OF_ASC_NODE = 347.3632
ARG_OF_PERICENTER = 209.8722
MEAN_ANOMALY   = 150.2003

EPHEMERIS_TYPE = 0
CLASSIFICATION_TYPE = U
NORAD_CAT_ID   = 66955
ELEMENT_SET_NO = 999
REV_AT_EPOCH   = 7
BSTAR          = .3470494E-5
MEAN_MOTION_DOT = .2E-6
MEAN_MOTION_DDOT = 0

CCSDS_OMM_VERS = 2.0
CREATION_DATE  = 
ORIGINATOR     = 

OBJECT_NAME    = HULIANWANG DIGUI 15D
OBJECT_ID      = 2025-287D
CENTER_NAME    = EARTH
REF_FRAME      = TEME
TIME_SYSTEM    = UTC
MEAN_ELEMENT_THEORY = SGP/SGP4

EPOCH          = 2025-12-10T08:40:06.191328
MEAN_MOTION    = 13.69398761
ECCENTRICITY   = .00070713
INCLINATION    = 86.4971
RA_OF_ASC_NODE = 347.0263
ARG_OF_PERICENTER = 199.7388
MEAN_ANOMALY   = 160.3499

EPHEMERIS_TYPE = 0
CLASSIFICATION_TYPE = U
NORAD_CAT_ID   = 66956
ELEMENT_SET_NO = 999
REV_AT_EPOCH   = 20
BSTAR          = .10798013E-4
MEAN_MOTION_DOT = .26E-6
MEAN_MOTION_DDOT = 0

CCSDS_OMM_VERS = 2.0
CREATION_DATE  = 
ORIGINATOR     = 

OBJECT_NAME    = HULIANWANG DIGUI 15E
OBJECT_ID      = 2025-287E
CENTER_NAME    = EARTH
REF_FRAME      = TEME
TIME_SYSTEM    = UTC
MEAN_ELEMENT_THEORY = SGP/SGP4

EPOCH          = 2025-12-10T08:39:56.683872
MEAN_MOTION    = 13.69509074
ECCENTRICITY   = .00068996
INCLINATION    = 86.4942
RA_OF_ASC_NODE = 347.0238
ARG_OF_PERICENTER = 197.5170
MEAN_ANOMALY   = 162.5753

EPHEMERIS_TYPE = 0
CLASSIFICATION_TYPE = U
NORAD_CAT_ID   = 66957
ELEMENT_SET_NO = 999
REV_AT_EPOCH   = 20
BSTAR          = -.19874691E-3
MEAN_MOTION_DOT = -.156E-5
MEAN_MOTION_DDOT = 0

CCSDS_OMM_VERS = 2.0
CREATION_DATE  = 
ORIGINATOR     = 

OBJECT_NAME    = CZ-6A R/B
OBJECT_ID      = 2025-287F
CENTER_NAME    = EARTH
REF_FRAME      = TEME
TIME_SYSTEM    = UTC
MEAN_ELEMENT_THEORY = SGP/SGP4

EPOCH          = 2025-12-10T14:56:42.203616
MEAN_MOTION    = 13.94919170
ECCENTRICITY   = .01071803
INCLINATION    = 86.5059
RA_OF_ASC_NODE = 346.9056
ARG_OF_PERICENTER = 108.4995
MEAN_ANOMALY   = 252.7862

EPHEMERIS_TYPE = 0
CLASSIFICATION_TYPE = U
NORAD_CAT_ID   = 66958
ELEMENT_SET_NO = 999
REV_AT_EPOCH   = 24
BSTAR          = .61149217E-3
MEAN_MOTION_DOT = .88E-5
MEAN_MOTION_DDOT = 0

CCSDS_OMM_VERS = 2.0
CREATION_DATE  = 
ORIGINATOR     = 

OBJECT_NAME    = YAOGAN-47
OBJECT_ID      = 2025-289A
CENTER_NAME    = EARTH
REF_FRAME      = TEME
TIME_SYSTEM    = UTC
MEAN_ELEMENT_THEORY = SGP/SGP4

EPOCH          = 2025-12-10T10:35:37.042080
MEAN_MOTION    = 15.23753580
ECCENTRICITY   = .0003184
INCLINATION    = 97.5219
RA_OF_ASC_NODE = 49.5452
ARG_OF_PERICENTER = 188.4341
MEAN_ANOMALY   = 171.6843

EPHEMERIS_TYPE = 0
CLASSIFICATION_TYPE = U
NORAD_CAT_ID   = 66988
ELEMENT_SET_NO = 999
REV_AT_EPOCH   = 19
BSTAR          = .24588E-3
MEAN_MOTION_DOT = .584E-4
MEAN_MOTION_DDOT = 0

CCSDS_OMM_VERS = 2.0
CREATION_DATE  = 
ORIGINATOR     = 

OBJECT_NAME    = CZ-4B R/B
OBJECT_ID      = 2025-289B
CENTER_NAME    = EARTH
REF_FRAME      = TEME
TIME_SYSTEM    = UTC
MEAN_ELEMENT_THEORY = SGP/SGP4

EPOCH          = 2025-12-10T14:28:25.391424
MEAN_MOTION    = 15.66309569
ECCENTRICITY   = .0151881
INCLINATION    = 97.5238
RA_OF_ASC_NODE = 49.7860
ARG_OF_PERICENTER = 11.0923
MEAN_ANOMALY   = 349.3621

EPHEMERIS_TYPE = 0
CLASSIFICATION_TYPE = U
NORAD_CAT_ID   = 66989
ELEMENT_SET_NO = 999
REV_AT_EPOCH   = 23
BSTAR          = .27358702E-3
MEAN_MOTION_DOT = .52933E-3
MEAN_MOTION_DDOT = .2979385E-5

CCSDS_OMM_VERS = 2.0
CREATION_DATE  = 
ORIGINATOR     = 

OBJECT_NAME    = TJS-22
OBJECT_ID      = 2025-290A
CENTER_NAME    = EARTH
REF_FRAME      = TEME
TIME_SYSTEM    = UTC
MEAN_ELEMENT_THEORY = SGP/SGP4

EPOCH          = 2025-12-10T07:11:32.843616
MEAN_MOTION    = 2.15443148
ECCENTRICITY   = .6664534
INCLINATION    = 20.1261
RA_OF_ASC_NODE = 301.1464
ARG_OF_PERICENTER = 180.6877
MEAN_ANOMALY   = 177.6237

EPHEMERIS_TYPE = 0
CLASSIFICATION_TYPE = U
NORAD_CAT_ID   = 66990
ELEMENT_SET_NO = 999
REV_AT_EPOCH   = 3
BSTAR          = .79788E-1
MEAN_MOTION_DOT = -.38E-6
MEAN_MOTION_DDOT = 0

CCSDS_OMM_VERS = 2.0
CREATION_DATE  = 
ORIGINATOR     = 

OBJECT_NAME    = CZ-3B R/B
OBJECT_ID      = 2025-290B
CENTER_NAME    = EARTH
REF_FRAME      = TEME
TIME_SYSTEM    = UTC
MEAN_ELEMENT_THEORY = SGP/SGP4

EPOCH          = 2025-12-10T06:44:55.577184
MEAN_MOTION    = 2.37676924
ECCENTRICITY   = .7242056
INCLINATION    = 28.4645
RA_OF_ASC_NODE = 302.5976
ARG_OF_PERICENTER = 179.3847
MEAN_ANOMALY   = 182.8677

EPHEMERIS_TYPE = 0
CLASSIFICATION_TYPE = U
NORAD_CAT_ID   = 66991
ELEMENT_SET_NO = 999
REV_AT_EPOCH   = 3
BSTAR          = .43781E-3
MEAN_MOTION_DOT = .18897E-3
MEAN_MOTION_DDOT = .45621E-6

